{
    "links": {
        "self": "http://www.neowsapp.com/rest/v1/neo/3548886?api_key=iIulBulltgU6a56xZRHN4H3l9WmuAYTsLGpBGhQ2"
    },
    "id": "3548886",
    "neo_reference_id": "3548886",
    "name": "(2010 TD55)",
    "designation": "2010 TD55",
    "nasa_jpl_url": "http://ssd.jpl.nasa.gov/sbdb.cgi?sstr=3548886",
    "absolute_magnitude_h": 23.2,
    "estimated_diameter": {
        "kilometers": {
            "estimated_diameter_min": 0.0608912622,
            "estimated_diameter_max": 0.1361570015
        },
        "meters": {
            "estimated_diameter_min": 60.8912622106,
            "estimated_diameter_max": 136.1570015386
        },
        "miles": {
            "estimated_diameter_min": 0.0378360645,
            "estimated_diameter_max": 0.0846040122
        },
        "feet": {
            "estimated_diameter_min": 199.7744887109,
            "estimated_diameter_max": 446.7093369279
        }
    },
    "is_potentially_hazardous_asteroid": false,
    "close_approach_data": [
        {
            "close_approach_date": "2010-10-20",
            "close_approach_date_full": "2010-Oct-20 23:17",
            "epoch_date_close_approach": 1287616620000,
            "relative_velocity": {
                "kilometers_per_second": "13.6347345712",
                "kilometers_per_hour": "49085.0444564064",
                "miles_per_hour": "30499.537762371"
            },
            "miss_distance": {
                "astronomical": "0.0807246485",
                "lunar": "31.4018882665",
                "kilometers": "12076235.472098695",
                "miles": "7503824.765384191"
            },
            "orbiting_body": "Earth"
        },
        {
            "close_approach_date": "2011-03-13",
            "close_approach_date_full": "2011-Mar-13 04:31",
            "epoch_date_close_approach": 1299990660000,
            "relative_velocity": {
                "kilometers_per_second": "12.0121374569",
                "kilometers_per_hour": "43243.6948449761",
                "miles_per_hour": "26869.9502774242"
            },
            "miss_distance": {
                "astronomical": "0.3673334771",
                "lunar": "142.8927225919",
                "kilometers": "54952305.753853777",
                "miles": "34145779.4346130426"
            },
            "orbiting_body": "Earth"
        }
    ],
    "orbital_data": {
        "orbit_id": "9",
        "orbit_determination_date": "2017-04-06 08:56:18",
        "first_observation_date": "2010-10-12",
        "last_observation_date": "2010-10-26",
        "data_arc_in_days": 14,
        "observations_used": 25,
        "orbit_uncertainty": "8",
        "minimum_orbit_intersection": ".07153",
        "jupiter_tisserand_invariant": "4.536",
        "epoch_osculation": "2455485.5",
        "eccentricity": ".3441235020271726",
        "semi_major_axis": "1.434217582835438",
        "inclination": "22.88878948302782",
        "ascending_node_longitude": "21.13862034958946",
        "orbital_period": "627.3660174187221",
        "perihelion_distance": ".9406696055611601",
        "perihelion_argument": "60.59757994052607",
        "aphelion_distance": "1.927765560109715",
        "perihelion_time": "2455539.132522268622",
        "mean_anomaly": "329.2241730016795",
        "mean_motion": ".573827701859289",
        "equinox": "J2000",
        "orbit_class": {
            "orbit_class_type": "APO",
            "orbit_class_description": "Near-Earth asteroid orbits which cross the Earth’s orbit similar to that of 1862 Apollo",
            "orbit_class_range": "a (semi-major axis) > 1.0 AU; q (perihelion) < 1.017 AU"
        }
    },
    "is_sentry_object": false
}